SL-4 R/B                
1 39679U 14021B   26025.30199480  .00015894  00000+0  36504-3 0  9998
2 39679  51.6065 188.7126 0099113 304.6933  54.4742 15.37816529649599
ALOS-2                  
1 39766U 14029A   26025.29860010  .00000962  00000+0  13567-3 0  9999
2 39766  97.9193 124.5184 0001448 105.3252 254.8119 14.79468420630454
YAOGAN-29               
1 41038U 15069A   26025.34165916  .00000280  00000+0  41208-4 0  9995
2 41038  98.0189  53.6468 0002699 108.8392 251.3114 14.82939256549455
ASTRO-H (HITOMI)        
1 41337U 16012A   26025.00157952  .00004670  00000+0  27701-3 0  9998
2 41337  30.9996 278.4090 0009922 254.3148 105.6395 15.09673973545626
HXMT (HUIYAN)           
1 42758U 17034A   26024.99692102  .00008489  00000+0  42899-3 0  9996
2 42758  43.0138 259.4804 0032942 316.4130  43.4117 15.16876338475900
CZ-2C R/B               
1 43521U 18054D   26024.95752396  .00258837  00000+0  91112-3 0  9992
2 43521  35.1305 245.3328 0012680 238.1328 121.8175 15.87351468421892
SAOCOM 1A               
1 43641U 18076A   26025.28369410  .00001143  00000+0  15013-3 0  9999
2 43641  97.8861 214.0736 0001519  84.5360 275.6026 14.82167014394934
H-2A R/B                
1 43682U 18084L   26025.20932535  .00029411  00000+0  74537-3 0  9993
2 43682  98.8767 233.3675 0026053 172.7926 187.3695 15.39333294399089
SAOCOM 1B               
1 46265U 20059A   26025.31492216  .00000865  00000+0  11523-3 0  9995
2 46265  97.8862 213.2040 0001307  88.5188 271.6175 14.82142819292323
CSS (TIANHE)            
1 48274U 21035A   26025.24543662  .00030178  00000+0  35035-3 0  9990
2 48274  41.4666 112.2238 0009924 357.6550   2.4241 15.61047675270822
COSMOS 2550             
1 48865U 21056A   26023.39368896 -.00000193  00000+0 -42471-7 0  9999
2 48865  67.1417 177.9415 0008427 270.0851  89.9337 15.33842763256517
CZ-2C R/B               
1 52794U 22058K   26025.13576448  .00040086  00000+0  65225-3 0  9997
2 52794  50.1884 181.8121 0042609  17.0110 343.2277 15.51183141203360
