CCSDS_OMM_VERS = 2.0
CREATION_DATE  = 
ORIGINATOR     = 

OBJECT_NAME    = SL-4 R/B
OBJECT_ID      = 2014-021B
CENTER_NAME    = EARTH
REF_FRAME      = TEME
TIME_SYSTEM    = UTC
MEAN_ELEMENT_THEORY = SGP/SGP4

EPOCH          = 2026-01-25T07:14:52.350720
MEAN_MOTION    = 15.37816529
ECCENTRICITY   = .00991131
INCLINATION    = 51.6065
RA_OF_ASC_NODE = 188.7126
ARG_OF_PERICENTER = 304.6933
MEAN_ANOMALY   = 54.4742

EPHEMERIS_TYPE = 0
CLASSIFICATION_TYPE = U
NORAD_CAT_ID   = 39679
ELEMENT_SET_NO = 999
REV_AT_EPOCH   = 64959
BSTAR          = .36503995E-3
MEAN_MOTION_DOT = .15894E-3
MEAN_MOTION_DDOT = 0

CCSDS_OMM_VERS = 2.0
CREATION_DATE  = 
ORIGINATOR     = 

OBJECT_NAME    = ALOS-2
OBJECT_ID      = 2014-029A
CENTER_NAME    = EARTH
REF_FRAME      = TEME
TIME_SYSTEM    = UTC
MEAN_ELEMENT_THEORY = SGP/SGP4

EPOCH          = 2026-01-25T07:09:59.048640
MEAN_MOTION    = 14.79468420
ECCENTRICITY   = .00014487
INCLINATION    = 97.9193
RA_OF_ASC_NODE = 124.5184
ARG_OF_PERICENTER = 105.3252
MEAN_ANOMALY   = 254.8119

EPHEMERIS_TYPE = 0
CLASSIFICATION_TYPE = U
NORAD_CAT_ID   = 39766
ELEMENT_SET_NO = 999
REV_AT_EPOCH   = 63045
BSTAR          = .13566843E-3
MEAN_MOTION_DOT = .962E-5
MEAN_MOTION_DDOT = 0

CCSDS_OMM_VERS = 2.0
CREATION_DATE  = 
ORIGINATOR     = 

OBJECT_NAME    = YAOGAN-29
OBJECT_ID      = 2015-069A
CENTER_NAME    = EARTH
REF_FRAME      = TEME
TIME_SYSTEM    = UTC
MEAN_ELEMENT_THEORY = SGP/SGP4

EPOCH          = 2026-01-25T08:11:59.351424
MEAN_MOTION    = 14.82939256
ECCENTRICITY   = .00026992
INCLINATION    = 98.0189
RA_OF_ASC_NODE = 53.6468
ARG_OF_PERICENTER = 108.8392
MEAN_ANOMALY   = 251.3114

EPHEMERIS_TYPE = 0
CLASSIFICATION_TYPE = U
NORAD_CAT_ID   = 41038
ELEMENT_SET_NO = 999
REV_AT_EPOCH   = 54945
BSTAR          = .41208058E-4
MEAN_MOTION_DOT = .28E-5
MEAN_MOTION_DDOT = 0

CCSDS_OMM_VERS = 2.0
CREATION_DATE  = 
ORIGINATOR     = 

OBJECT_NAME    = ASTRO-H (HITOMI)
OBJECT_ID      = 2016-012A
CENTER_NAME    = EARTH
REF_FRAME      = TEME
TIME_SYSTEM    = UTC
MEAN_ELEMENT_THEORY = SGP/SGP4

EPOCH          = 2026-01-25T00:02:16.470528
MEAN_MOTION    = 15.09673973
ECCENTRICITY   = .00099223
INCLINATION    = 30.9996
RA_OF_ASC_NODE = 278.4090
ARG_OF_PERICENTER = 254.3148
MEAN_ANOMALY   = 105.6395

EPHEMERIS_TYPE = 0
CLASSIFICATION_TYPE = U
NORAD_CAT_ID   = 41337
ELEMENT_SET_NO = 999
REV_AT_EPOCH   = 54562
BSTAR          = .27700952E-3
MEAN_MOTION_DOT = .467E-4
MEAN_MOTION_DDOT = 0

CCSDS_OMM_VERS = 2.0
CREATION_DATE  = 
ORIGINATOR     = 

OBJECT_NAME    = HXMT (HUIYAN)
OBJECT_ID      = 2017-034A
CENTER_NAME    = EARTH
REF_FRAME      = TEME
TIME_SYSTEM    = UTC
MEAN_ELEMENT_THEORY = SGP/SGP4

EPOCH          = 2026-01-24T23:55:33.976128
MEAN_MOTION    = 15.16876338
ECCENTRICITY   = .00329424
INCLINATION    = 43.0138
RA_OF_ASC_NODE = 259.4804
ARG_OF_PERICENTER = 316.4130
MEAN_ANOMALY   = 43.4117

EPHEMERIS_TYPE = 0
CLASSIFICATION_TYPE = U
NORAD_CAT_ID   = 42758
ELEMENT_SET_NO = 999
REV_AT_EPOCH   = 47590
BSTAR          = .42898968E-3
MEAN_MOTION_DOT = .8489E-4
MEAN_MOTION_DDOT = 0

CCSDS_OMM_VERS = 2.0
CREATION_DATE  = 
ORIGINATOR     = 

OBJECT_NAME    = CZ-2C R/B
OBJECT_ID      = 2018-054D
CENTER_NAME    = EARTH
REF_FRAME      = TEME
TIME_SYSTEM    = UTC
MEAN_ELEMENT_THEORY = SGP/SGP4

EPOCH          = 2026-01-24T22:58:50.070144
MEAN_MOTION    = 15.87351468
ECCENTRICITY   = .001268
INCLINATION    = 35.1305
RA_OF_ASC_NODE = 245.3328
ARG_OF_PERICENTER = 238.1328
MEAN_ANOMALY   = 121.8175

EPHEMERIS_TYPE = 0
CLASSIFICATION_TYPE = U
NORAD_CAT_ID   = 43521
ELEMENT_SET_NO = 999
REV_AT_EPOCH   = 42189
BSTAR          = .91112E-3
MEAN_MOTION_DOT = .258837E-2
MEAN_MOTION_DDOT = 0

CCSDS_OMM_VERS = 2.0
CREATION_DATE  = 
ORIGINATOR     = 

OBJECT_NAME    = SAOCOM 1A
OBJECT_ID      = 2018-076A
CENTER_NAME    = EARTH
REF_FRAME      = TEME
TIME_SYSTEM    = UTC
MEAN_ELEMENT_THEORY = SGP/SGP4

EPOCH          = 2026-01-25T06:48:31.170240
MEAN_MOTION    = 14.82167014
ECCENTRICITY   = .00015196
INCLINATION    = 97.8861
RA_OF_ASC_NODE = 214.0736
ARG_OF_PERICENTER = 84.5360
MEAN_ANOMALY   = 275.6026

EPHEMERIS_TYPE = 0
CLASSIFICATION_TYPE = U
NORAD_CAT_ID   = 43641
ELEMENT_SET_NO = 999
REV_AT_EPOCH   = 39493
BSTAR          = .15013098E-3
MEAN_MOTION_DOT = .1143E-4
MEAN_MOTION_DDOT = 0

CCSDS_OMM_VERS = 2.0
CREATION_DATE  = 
ORIGINATOR     = 

OBJECT_NAME    = H-2A R/B
OBJECT_ID      = 2018-084L
CENTER_NAME    = EARTH
REF_FRAME      = TEME
TIME_SYSTEM    = UTC
MEAN_ELEMENT_THEORY = SGP/SGP4

EPOCH          = 2026-01-25T05:01:25.710240
MEAN_MOTION    = 15.39333294
ECCENTRICITY   = .00260534
INCLINATION    = 98.8767
RA_OF_ASC_NODE = 233.3675
ARG_OF_PERICENTER = 172.7926
MEAN_ANOMALY   = 187.3695

EPHEMERIS_TYPE = 0
CLASSIFICATION_TYPE = U
NORAD_CAT_ID   = 43682
ELEMENT_SET_NO = 999
REV_AT_EPOCH   = 39908
BSTAR          = .74537471E-3
MEAN_MOTION_DOT = .29411E-3
MEAN_MOTION_DDOT = 0

CCSDS_OMM_VERS = 2.0
CREATION_DATE  = 
ORIGINATOR     = 

OBJECT_NAME    = SAOCOM 1B
OBJECT_ID      = 2020-059A
CENTER_NAME    = EARTH
REF_FRAME      = TEME
TIME_SYSTEM    = UTC
MEAN_ELEMENT_THEORY = SGP/SGP4

EPOCH          = 2026-01-25T07:33:29.274624
MEAN_MOTION    = 14.82142819
ECCENTRICITY   = .00013074
INCLINATION    = 97.8862
RA_OF_ASC_NODE = 213.2040
ARG_OF_PERICENTER = 88.5188
MEAN_ANOMALY   = 271.6175

EPHEMERIS_TYPE = 0
CLASSIFICATION_TYPE = U
NORAD_CAT_ID   = 46265
ELEMENT_SET_NO = 999
REV_AT_EPOCH   = 29232
BSTAR          = .11522544E-3
MEAN_MOTION_DOT = .865E-5
MEAN_MOTION_DDOT = 0

CCSDS_OMM_VERS = 2.0
CREATION_DATE  = 
ORIGINATOR     = 

OBJECT_NAME    = CSS (TIANHE)
OBJECT_ID      = 2021-035A
CENTER_NAME    = EARTH
REF_FRAME      = TEME
TIME_SYSTEM    = UTC
MEAN_ELEMENT_THEORY = SGP/SGP4

EPOCH          = 2026-01-25T05:53:25.723968
MEAN_MOTION    = 15.61047675
ECCENTRICITY   = .00099245
INCLINATION    = 41.4666
RA_OF_ASC_NODE = 112.2238
ARG_OF_PERICENTER = 357.6550
MEAN_ANOMALY   = 2.4241

EPHEMERIS_TYPE = 0
CLASSIFICATION_TYPE = U
NORAD_CAT_ID   = 48274
ELEMENT_SET_NO = 999
REV_AT_EPOCH   = 27082
BSTAR          = .35035124E-3
MEAN_MOTION_DOT = .30178E-3
MEAN_MOTION_DDOT = 0

CCSDS_OMM_VERS = 2.0
CREATION_DATE  = 
ORIGINATOR     = 

OBJECT_NAME    = COSMOS 2550
OBJECT_ID      = 2021-056A
CENTER_NAME    = EARTH
REF_FRAME      = TEME
TIME_SYSTEM    = UTC
MEAN_ELEMENT_THEORY = SGP/SGP4

EPOCH          = 2026-01-23T09:26:54.726144
MEAN_MOTION    = 15.33842763
ECCENTRICITY   = .00084274
INCLINATION    = 67.1417
RA_OF_ASC_NODE = 177.9415
ARG_OF_PERICENTER = 270.0851
MEAN_ANOMALY   = 89.9337

EPHEMERIS_TYPE = 0
CLASSIFICATION_TYPE = U
NORAD_CAT_ID   = 48865
ELEMENT_SET_NO = 999
REV_AT_EPOCH   = 25651
BSTAR          = -.42471E-7
MEAN_MOTION_DOT = -.193E-5
MEAN_MOTION_DDOT = 0

CCSDS_OMM_VERS = 2.0
CREATION_DATE  = 
ORIGINATOR     = 

OBJECT_NAME    = CZ-2C R/B
OBJECT_ID      = 2022-058K
CENTER_NAME    = EARTH
REF_FRAME      = TEME
TIME_SYSTEM    = UTC
MEAN_ELEMENT_THEORY = SGP/SGP4

EPOCH          = 2026-01-25T03:15:30.051072
MEAN_MOTION    = 15.51183141
ECCENTRICITY   = .00426091
INCLINATION    = 50.1884
RA_OF_ASC_NODE = 181.8121
ARG_OF_PERICENTER = 17.0110
MEAN_ANOMALY   = 343.2277

EPHEMERIS_TYPE = 0
CLASSIFICATION_TYPE = U
NORAD_CAT_ID   = 52794
ELEMENT_SET_NO = 999
REV_AT_EPOCH   = 20336
BSTAR          = .6522527E-3
MEAN_MOTION_DOT = .40086E-3
MEAN_MOTION_DDOT = 0

